COSMOS 2425 (716)       
1 29670U 06062A   17290.23651161  .00000003  00000-0  10000-3 0  9999
2 29670  65.4013 300.7451 0020641 337.6921 188.9529  2.13105042 84135
COSMOS 2426 (717)       
1 29671U 06062B   17290.26021100  .00000003  00000-0  10000-3 0  9997
2 29671  65.4191 300.8373 0018450 174.2542 228.0116  2.13103013 84141
COSMOS 2433 (720)       
1 32275U 07052A   17290.36327350 -.00000039  00000-0  10000-3 0  9998
2 32275  65.5726  61.5199 0001752 208.3919 247.4105  2.13104795 77650
COSMOS 2432 (719)       
1 32276U 07052B   17290.36309045 -.00000039  00000-0  10000-3 0  9990
2 32276  65.5850  61.5932 0009420 341.6548  66.6109  2.13104010 77658
COSMOS 2434 (721)       
1 32393U 07065A   17290.45684778 -.00000000  00000-0  00000+0 0  9996
2 32393  65.0178 299.8290 0003144 158.9312 257.6677  2.13103005 76366
COSMOS 2436 (723)       
1 32395U 07065C   17290.43559963  .00000000  00000-0  10000-3 0  9997
2 32395  65.0273 299.8775 0013784 349.4105 100.1879  2.13104393 76299
COSMOS 2456 (730)       
1 36111U 09070A   17290.32604436  .00000014  00000-0  00000+0 0  9999
2 36111  64.1795 179.4016 0004251 319.0803 168.6953  2.13103009 61026
COSMOS 2457 (733)       
1 36112U 09070B   17290.48498200  .00000016  00000-0  00000-0 0  9990
2 36112  64.1622 179.3123 0006183 165.3454 212.3756  2.13101787 61034
COSMOS 2458 (734)       
1 36113U 09070C   17290.17236709  .00000012  00000-0  10000-3 0  9991
2 36113  64.1684 179.3322 0001723  12.4972 173.4750  2.13101925 61020
COSMOS 2459 (731)       
1 36400U 10007A   17290.40996376 -.00000042  00000-0  10000-3 0  9995
2 36400  65.4816  60.6096 0025713 355.8443 356.8225  2.13102224 59374
COSMOS 2461 (735)       
1 36401U 10007B   17290.55200436 -.00000043  00000-0  10000-3 0  9998
2 36401  65.4737  60.5819 0007941  81.1307 291.1194  2.13102194 59383
COSMOS 2460 (732)       
1 36402U 10007C   17290.48684726 -.00000042  00000-0  10000-3 0  9998
2 36402  65.4652  60.5545 0002149 120.4528 242.8563  2.13101784 59380
COSMOS 2464 (736)       
1 37139U 10041C   17290.28394810  .00000000  00000-0  00000-0 0  9993
2 37139  64.6223 299.7612 0021452   6.2979 145.3960  2.13102740 55447
COSMOS 2471 (701K)      
1 37372U 11009A   17290.36398981 -.00000042  00000-0  00000-0 0  9996
2 37372  65.4629  60.5056 0007757 222.2290 185.5700  2.13107729 51658
COSMOS 2474 (742)       
1 37829U 11055A   17290.35631505  .00000013  00000-0  00000-0 0  9992
2 37829  64.5036 180.0165 0008160 248.7956 121.4381  2.13101965 47023
COSMOS 2476 (744)       
1 37867U 11064A   17290.45489060  .00000014  00000-0  00000-0 0  9993
2 37867  64.4839 180.0814 0017569 242.8882 248.9397  2.13102024 46378
COSMOS 2477 (745)       
1 37868U 11064B   17290.23127637  .00000011  00000-0  00000+0 0  9995
2 37868  64.4922 180.1345 0015447 244.2202 255.1250  2.13101933 46328
COSMOS 2475 (743)       
1 37869U 11064C   17290.33253389  .00000013  00000-0  00000-0 0  9994
2 37869  64.4993 180.1234 0020173 270.5250 263.0241  2.13102283 46339
COSMOS 2485 (747)       
1 39155U 13019A   17290.49317297  .00000015  00000-0  00000-0 0  9994
2 39155  64.6537 180.1361 0018029 237.5892 328.5990  2.13102107 34844
COSMOS 2492 (754)       
1 39620U 14012A   17290.52442777 -.00000043  00000-0  10000-3 0  9997
2 39620  65.3549  60.4729 0012723 335.0610 289.4924  2.13103472 27791
COSMOS 2500 (755)       
1 40001U 14032A   17290.36055424 -.00000042  00000-0  00000-0 0  9990
2 40001  65.2957  60.4668 0006592 188.0620 173.5725  2.13102831 26018
COSMOS 2501 (702K)      
1 40315U 14075A   17290.40935867 -.00000002  00000-0  00000+0 0  9993
2 40315  64.3479 301.0566 0017012 212.0618 351.5173  2.13098664 22413
COSMOS 2514 (751)       
1 41330U 16008A   17290.59077238 -.00000044  00000-0  00000+0 0  9994
2 41330  65.0965  60.5695 0009716 205.6565 152.8768  2.13102455 13179
COSMOS 2516 (753)       
1 41554U 16032A   17290.35917152 -.00000001  00000-0  00000+0 0  9994
2 41554  64.5683 300.8549 0014660 224.4637 208.3911  2.13101741 10787
COSMOS 2522 (752)       
1 42939U 17055A   17290.27069522  .00000001  00000-0  00000-0 0  9998
2 42939  64.7979 300.7536 0010316 248.5469 342.7836  2.13101761   537
